{"type": "FeatureCollection", "features": [ {"type": "Feature", "properties": {"norad_id": 33867, "name": "IRIDIUM 33 DEB", "group": "iridium-33-debris", "lat": -21.77278692520084, "lon": -14.95845451913159, "alt_km": 333.12431469041803, "timestamp": "2025-12-19T14:48:36.632494+00:00", "meta": {"OBJECT_NAME": "IRIDIUM 33 DEB", "OBJECT_ID": "1997-051AL", "EPOCH": "2025-12-19T05:47:32.216640", "MEAN_MOTION": 15.81283526, "ECCENTRICITY": 0.00136168, "INCLINATION": 86.3654, "RA_OF_ASC_NODE": 346.6955, "ARG_OF_PERICENTER": 94.4725, "MEAN_ANOMALY": 265.8107, "EPHEMERIS_TYPE": 0, "CLASSIFICATION_TYPE": "U", "NORAD_CAT_ID": 33867, "ELEMENT_SET_NO": 999, "REV_AT_EPOCH": 89613, "BSTAR": 0.0071361823, "MEAN_MOTION_DOT": 0.01596226, "MEAN_MOTION_DDOT": 0}, "tle": {"line1": "1 33867U 97051AL  25353.24134510  .01596226  00000+0  71362-2 0  9998", "line2": "2 33867  86.3654 346.6955 0013616  94.4725 265.8107 15.81283526896134"}}, "geometry": {"type": "Point", "coordinates": [-14.95845451913159, -21.77278692520084]}}, {"type": "Feature", "properties": {"norad_id": 33870, "name": "IRIDIUM 33 DEB", "group": "iridium-33-debris", "lat": 78.67306020624751, "lon": -143.14027263551714, "alt_km": 722.8734142338444, "timestamp": "2025-12-19T14:48:36.632513+00:00", "meta": {"OBJECT_NAME": "IRIDIUM 33 DEB", "OBJECT_ID": "1997-051AP", "EPOCH": "2025-12-19T04:30:01.525824", "MEAN_MOTION": 14.45883065, "ECCENTRICITY": 0.00221566, "INCLINATION": 86.3744, "RA_OF_ASC_NODE": 55.4973, "ARG_OF_PERICENTER": 157.4139, "MEAN_ANOMALY": 228.9344, "EPHEMERIS_TYPE": 0, "CLASSIFICATION_TYPE": "U", "NORAD_CAT_ID": 33870, "ELEMENT_SET_NO": 999, "REV_AT_EPOCH": 88230, "BSTAR": 0.00054158262, "MEAN_MOTION_DOT": 1.949e-05, "MEAN_MOTION_DDOT": 0}, "tle": {"line1": "1 33870U 97051AP  25353.18751766  .00001949  00000+0  54158-3 0  9990", "line2": "2 33870  86.3744  55.4973 0022156 157.4139 228.9344 14.45883065882301"}}, "geometry": {"type": "Point", "coordinates": [-143.14027263551714, 78.67306020624751]}}, {"type": "Feature", "properties": {"norad_id": 33881, "name": "IRIDIUM 33 DEB", "group": "iridium-33-debris", "lat": -56.004032393421056, "lon": -70.86967514493308, "alt_km": 706.0195267532044, "timestamp": "2025-12-19T14:48:36.632525+00:00", "meta": {"OBJECT_NAME": "IRIDIUM 33 DEB", "OBJECT_ID": "1997-051BA", "EPOCH": "2025-12-18T18:38:37.341312", "MEAN_MOTION": 14.56678227, "ECCENTRICITY": 0.00614608, "INCLINATION": 86.3861, "RA_OF_ASC_NODE": 104.1184, "ARG_OF_PERICENTER": 155.2089, "MEAN_ANOMALY": 356.6087, "EPHEMERIS_TYPE": 0, "CLASSIFICATION_TYPE": "U", "NORAD_CAT_ID": 33881, "ELEMENT_SET_NO": 999, "REV_AT_EPOCH": 87588, "BSTAR": 0.0015458281, "MEAN_MOTION_DOT": 7.103e-05, "MEAN_MOTION_DDOT": 0}, "tle": {"line1": "1 33881U 97051BA  25352.77682108  .00007103  00000+0  15458-2 0  9996", "line2": "2 33881  86.3861 104.1184 0061460 155.2089 356.6087 14.56678227875882"}}, "geometry": {"type": "Point", "coordinates": [-70.86967514493308, -56.004032393421056]}}, {"type": "Feature", "properties": {"norad_id": 33884, "name": "IRIDIUM 33 DEB", "group": "iridium-33-debris", "lat": -22.243846337801674, "lon": 5.2257320666657305, "alt_km": 637.646679376101, "timestamp": "2025-12-19T14:48:36.632536+00:00", "meta": {"OBJECT_NAME": "IRIDIUM 33 DEB", "OBJECT_ID": "1997-051BD", "EPOCH": "2025-12-19T06:51:00.175680", "MEAN_MOTION": 14.77551072, "ECCENTRICITY": 0.0009195, "INCLINATION": 86.3691, "RA_OF_ASC_NODE": 6.8636, "ARG_OF_PERICENTER": 298.3453, "MEAN_ANOMALY": 76.3453, "EPHEMERIS_TYPE": 0, "CLASSIFICATION_TYPE": "U", "NORAD_CAT_ID": 33884, "ELEMENT_SET_NO": 999, "REV_AT_EPOCH": 88944, "BSTAR": 0.001004041, "MEAN_MOTION_DOT": 7.196e-05, "MEAN_MOTION_DDOT": 0}, "tle": {"line1": "1 33884U 97051BD  25353.28541870  .00007196  00000+0  10040-2 0  9990", "line2": "2 33884  86.3691   6.8636 0009195 298.3453  76.3453 14.77551072889448"}}, "geometry": {"type": "Point", "coordinates": [5.2257320666657305, -22.243846337801674]}}, {"type": "Feature", "properties": {"norad_id": 33886, "name": "IRIDIUM 33 DEB", "group": "iridium-33-debris", "lat": -40.90556261691893, "lon": 61.19218676463885, "alt_km": 780.0976294464963, "timestamp": "2025-12-19T14:48:36.632547+00:00", "meta": {"OBJECT_NAME": "IRIDIUM 33 DEB", "OBJECT_ID": "1997-051BF", "EPOCH": "2025-12-19T03:37:10.795296", "MEAN_MOTION": 14.36059291, "ECCENTRICITY": 0.00128366, "INCLINATION": 86.3826, "RA_OF_ASC_NODE": 64.5303, "ARG_OF_PERICENTER": 218.5013, "MEAN_ANOMALY": 211.4365, "EPHEMERIS_TYPE": 0, "CLASSIFICATION_TYPE": "U", "NORAD_CAT_ID": 33886, "ELEMENT_SET_NO": 999, "REV_AT_EPOCH": 88144, "BSTAR": 0.00015106109, "MEAN_MOTION_DOT": 4.59e-06, "MEAN_MOTION_DDOT": 0}, "tle": {"line1": "1 33886U 97051BF  25353.15081939  .00000459  00000+0  15106-3 0  9997", "line2": "2 33886  86.3826  64.5303 0012836 218.5013 211.4365 14.36059291881441"}}, "geometry": {"type": "Point", "coordinates": [61.19218676463885, -40.90556261691893]}}, {"type": "Feature", "properties": {"norad_id": 33887, "name": "IRIDIUM 33 DEB", "group": "iridium-33-debris", "lat": -75.41234946738697, "lon": -13.952431565091324, "alt_km": 774.7913306090459, "timestamp": "2025-12-19T14:48:36.632558+00:00", "meta": {"OBJECT_NAME": "IRIDIUM 33 DEB", "OBJECT_ID": "1997-051BG", "EPOCH": "2025-12-19T06:53:26.464704", "MEAN_MOTION": 14.37226609, "ECCENTRICITY": 0.00051038, "INCLINATION": 86.3041, "RA_OF_ASC_NODE": 0.5705, "ARG_OF_PERICENTER": 199.9282, "MEAN_ANOMALY": 177.9319, "EPHEMERIS_TYPE": 0, "CLASSIFICATION_TYPE": "U", "NORAD_CAT_ID": 33887, "ELEMENT_SET_NO": 999, "REV_AT_EPOCH": 88259, "BSTAR": 0.00011184202, "MEAN_MOTION_DOT": 3.53e-06, "MEAN_MOTION_DDOT": 0}, "tle": {"line1": "1 33887U 97051BG  25353.28711186  .00000353  00000+0  11184-3 0  9991", "line2": "2 33887  86.3041   0.5705 0005103 199.9282 177.9319 14.37226609882598"}}, "geometry": {"type": "Point", "coordinates": [-13.952431565091324, -75.41234946738697]}}, {"type": "Feature", "properties": {"norad_id": 33953, "name": "IRIDIUM 33 DEB", "group": "iridium-33-debris", "lat": -48.00904197870653, "lon": -125.1771186699583, "alt_km": 725.6684483695244, "timestamp": "2025-12-19T14:48:36.632568+00:00", "meta": {"OBJECT_NAME": "IRIDIUM 33 DEB", "OBJECT_ID": "1997-051BN", "EPOCH": "2025-12-19T03:59:07.956384", "MEAN_MOTION": 14.55382741, "ECCENTRICITY": 0.00180317, "INCLINATION": 86.3844, "RA_OF_ASC_NODE": 50.9905, "ARG_OF_PERICENTER": 83.2549, "MEAN_ANOMALY": 303.1026, "EPHEMERIS_TYPE": 0, "CLASSIFICATION_TYPE": "U", "NORAD_CAT_ID": 33953, "ELEMENT_SET_NO": 999, "REV_AT_EPOCH": 88397, "BSTAR": 0.0008151616, "MEAN_MOTION_DOT": 3.566e-05, "MEAN_MOTION_DDOT": 0}, "tle": {"line1": "1 33953U 97051BN  25353.16606431  .00003566  00000+0  81516-3 0  9993", "line2": "2 33953  86.3844  50.9905 0018031  83.2549 303.1026 14.55382741883970"}}, "geometry": {"type": "Point", "coordinates": [-125.1771186699583, -48.00904197870653]}}, {"type": "Feature", "properties": {"norad_id": 33960, "name": "IRIDIUM 33 DEB", "group": "iridium-33-debris", "lat": 53.944413287518216, "lon": -68.5661144595222, "alt_km": 601.7754760507469, "timestamp": "2025-12-19T14:48:36.632580+00:00", "meta": {"OBJECT_NAME": "IRIDIUM 33 DEB", "OBJECT_ID": "1997-051BV", "EPOCH": "2025-12-18T21:04:17.238720", "MEAN_MOTION": 14.85489781, "ECCENTRICITY": 0.00074649, "INCLINATION": 86.254, "RA_OF_ASC_NODE": 286.6192, "ARG_OF_PERICENTER": 52.1098, "MEAN_ANOMALY": 12.0352, "EPHEMERIS_TYPE": 0, "CLASSIFICATION_TYPE": "U", "NORAD_CAT_ID": 33960, "ELEMENT_SET_NO": 999, "REV_AT_EPOCH": 88958, "BSTAR": 0.0022083229, "MEAN_MOTION_DOT": 0.0001912, "MEAN_MOTION_DDOT": 0}, "tle": {"line1": "1 33960U 97051BV  25352.87797730  .00019120  00000+0  22083-2 0  9997", "line2": "2 33960  86.2540 286.6192 0007464  52.1098  12.0352 14.85489781889584"}}, "geometry": {"type": "Point", "coordinates": [-68.5661144595222, 53.944413287518216]}}, {"type": "Feature", "properties": {"norad_id": 33966, "name": "IRIDIUM 33 DEB", "group": "iridium-33-debris", "lat": -31.884112454560196, "lon": -134.67454203963248, "alt_km": 729.0512149913557, "timestamp": "2025-12-19T14:48:36.632591+00:00", "meta": {"OBJECT_NAME": "IRIDIUM 33 DEB", "OBJECT_ID": "1997-051CB", "EPOCH": "2025-12-18T15:23:51.544320", "MEAN_MOTION": 14.49616316, "ECCENTRICITY": 0.00080643, "INCLINATION": 86.3918, "RA_OF_ASC_NODE": 43.4945, "ARG_OF_PERICENTER": 169.3872, "MEAN_ANOMALY": 354.7755, "EPHEMERIS_TYPE": 0, "CLASSIFICATION_TYPE": "U", "NORAD_CAT_ID": 33966, "ELEMENT_SET_NO": 999, "REV_AT_EPOCH": 88527, "BSTAR": 0.00039110994, "MEAN_MOTION_DOT": 1.522e-05, "MEAN_MOTION_DDOT": 0}, "tle": {"line1": "1 33966U 97051CB  25352.64156880  .00001522  00000+0  39111-3 0  9991", "line2": "2 33966  86.3918  43.4945 0008064 169.3872 354.7755 14.49616316885274"}}, "geometry": {"type": "Point", "coordinates": [-134.67454203963248, -31.884112454560196]}}, {"type": "Feature", "properties": {"norad_id": 34071, "name": "IRIDIUM 33 DEB", "group": "iridium-33-debris", "lat": -83.81475741205898, "lon": -21.305749427069422, "alt_km": 741.7852511020283, "timestamp": "2025-12-19T14:48:36.632602+00:00", "meta": {"OBJECT_NAME": "IRIDIUM 33 DEB", "OBJECT_ID": "1997-051CE", "EPOCH": "2025-12-19T03:36:16.848000", "MEAN_MOTION": 14.49491498, "ECCENTRICITY": 0.00099478, "INCLINATION": 86.3449, "RA_OF_ASC_NODE": 15.0419, "ARG_OF_PERICENTER": 90.2014, "MEAN_ANOMALY": 270.033, "EPHEMERIS_TYPE": 0, "CLASSIFICATION_TYPE": "U", "NORAD_CAT_ID": 34071, "ELEMENT_SET_NO": 999, "REV_AT_EPOCH": 88427, "BSTAR": 0.00044755385, "MEAN_MOTION_DOT": 1.735e-05, "MEAN_MOTION_DDOT": 0}, "tle": {"line1": "1 34071U 97051CE  25353.15019500  .00001735  00000+0  44755-3 0  9999", "line2": "2 34071  86.3449  15.0419 0009947  90.2014 270.0330 14.49491498884273"}}, "geometry": {"type": "Point", "coordinates": [-21.305749427069422, -83.81475741205898]}}]}